[{"OBJECT_NAME":"NUSAT-44 (MARIA MITCHELL)","OBJECT_ID":"2024-043AA","EPOCH":"2026-03-09T22:12:18.524160","MEAN_MOTION":15.29764305,"ECCENTRICITY":0.0007331,"INCLINATION":97.5299,"RA_OF_ASC_NODE":207.7691,"ARG_OF_PERICENTER":214.9017,"MEAN_ANOMALY":145.1743,"EPHEMERIS_TYPE":0,"CLASSIFICATION_TYPE":"U","NORAD_CAT_ID":59122,"ELEMENT_SET_NO":999,"REV_AT_EPOCH":11209,"BSTAR":0.00061063193,"MEAN_MOTION_DOT":0.00017562,"MEAN_MOTION_DDOT":0},{"OBJECT_NAME":"STARLINK-32645","OBJECT_ID":"2024-239W","EPOCH":"2026-03-09T14:26:57.131232","MEAN_MOTION":15.30185792,"ECCENTRICITY":0.0001165,"INCLINATION":53.1578,"RA_OF_ASC_NODE":181.3223,"ARG_OF_PERICENTER":73.7282,"MEAN_ANOMALY":286.3846,"EPHEMERIS_TYPE":0,"CLASSIFICATION_TYPE":"U","NORAD_CAT_ID":62321,"ELEMENT_SET_NO":999,"REV_AT_EPOCH":6955,"BSTAR":0.00091346,"MEAN_MOTION_DOT":0.00026781,"MEAN_MOTION_DDOT":0}]
